{
  "type": "FeatureCollection",
  "features": [
    {
      "type": "Feature",
      "properties": {
        "norad_id": 28051,
        "name": "IRS-P6 (RESOURCESAT-1)",
        "group": "resource",
        "lat": 16.594844506065918,
        "lon": -153.64611388203633,
        "alt_km": 731.6019970855314,
        "timestamp": "2025-12-09T07:41:32.859278+00:00",
        "meta_object_name": "IRS-P6 (RESOURCESAT-1)",
        "meta_object_id": "2003-046A",
        "meta_epoch": "2025-12-09T00:32:32.341920",
        "meta_mean_motion": 14.36071884,
        "meta_eccentricity": 0.00639032,
        "meta_inclination": 98.2177,
        "meta_ra_of_asc_node": 23.6015,
        "meta_arg_of_pericenter": 191.8582,
        "meta_mean_anomaly": 232.2748,
        "meta_ephemeris_type": 0,
        "meta_classification_type": "U",
        "meta_norad_cat_id": 28051,
        "meta_element_set_no": 999,
        "meta_rev_at_epoch": 15323,
        "meta_bstar": 7.6896636e-05,
        "meta_mean_motion_dot": 1.88e-06,
        "meta_mean_motion_ddot": 0,
        "tle_line1": "1 28051U 03046A   25343.02259655  .00000188  00000+0  76897-4 0  9997",
        "tle_line2": "2 28051  98.2177  23.6015 0063903 191.8582 232.2748 14.36071884153238"
      },
      "geometry": {
        "type": "Point",
        "coordinates": [
          -153.64611388203633,
          16.594844506065918
        ]
      }
    },
    {
      "type": "Feature",
      "properties": {
        "norad_id": 28220,
        "name": "SHIYAN-1 (SY-1)",
        "group": "resource",
        "lat": -13.692996149245696,
        "lon": 46.59419307426165,
        "alt_km": 482.4592390702337,
        "timestamp": "2025-12-09T07:41:32.859290+00:00",
        "meta_object_name": "SHIYAN-1 (SY-1)",
        "meta_object_id": "2004-012A",
        "meta_epoch": "2025-12-08T22:19:21.540288",
        "meta_mean_motion": 15.27987286,
        "meta_eccentricity": 0.00058965,
        "meta_inclination": 97.8934,
        "meta_ra_of_asc_node": 44.2437,
        "meta_arg_of_pericenter": 340.0401,
        "meta_mean_anomaly": 20.0606,
        "meta_ephemeris_type": 0,
        "meta_classification_type": "U",
        "meta_norad_cat_id": 28220,
        "meta_element_set_no": 999,
        "meta_rev_at_epoch": 18198,
        "meta_bstar": 0.0005989172,
        "meta_mean_motion_dot": 0.00016299,
        "meta_mean_motion_ddot": 0,
        "tle_line1": "1 28220U 04012A   25342.93011042  .00016299  00000+0  59892-3 0  9999",
        "tle_line2": "2 28220  97.8934  44.2437 0005896 340.0401  20.0606 15.27987286181986"
      },
      "geometry": {
        "type": "Point",
        "coordinates": [
          46.59419307426165,
          -13.692996149245696
        ]
      }
    },
    {
      "type": "Feature",
      "properties": {
        "norad_id": 28376,
        "name": "AURA",
        "group": "resource",
        "lat": 54.47231704859439,
        "lon": 125.35480207608612,
        "alt_km": 684.2976621797434,
        "timestamp": "2025-12-09T07:41:32.859302+00:00",
        "meta_object_name": "AURA",
        "meta_object_id": "2004-026A",
        "meta_epoch": "2025-12-08T22:54:19.351296",
        "meta_mean_motion": 14.60931939,
        "meta_eccentricity": 0.00011687,
        "meta_inclination": 98.318,
        "meta_ra_of_asc_node": 293.1635,
        "meta_arg_of_pericenter": 93.5434,
        "meta_mean_anomaly": 266.59,
        "meta_ephemeris_type": 0,
        "meta_classification_type": "U",
        "meta_norad_cat_id": 28376,
        "meta_element_set_no": 999,
        "meta_rev_at_epoch": 13843,
        "meta_bstar": 0.00036076911,
        "meta_mean_motion_dot": 1.719e-05,
        "meta_mean_motion_ddot": 0,
        "tle_line1": "1 28376U 04026A   25342.95439064  .00001719  00000+0  36077-3 0  9997",
        "tle_line2": "2 28376  98.3180 293.1635 0001168  93.5434 266.5900 14.60931939138432"
      },
      "geometry": {
        "type": "Point",
        "coordinates": [
          125.35480207608612,
          54.47231704859439
        ]
      }
    },
    {
      "type": "Feature",
      "properties": {
        "norad_id": 28649,
        "name": "IRS-P5 (CARTOSAT-1)",
        "group": "resource",
        "lat": -24.151780581076025,
        "lon": 13.294714382715505,
        "alt_km": 601.975017413437,
        "timestamp": "2025-12-09T07:41:32.859314+00:00",
        "meta_object_name": "IRS-P5 (CARTOSAT-1)",
        "meta_object_id": "2005-017A",
        "meta_epoch": "2025-12-08T23:44:41.909280",
        "meta_mean_motion": 14.90384637,
        "meta_eccentricity": 0.00014574,
        "meta_inclination": 97.5496,
        "meta_ra_of_asc_node": 9.5689,
        "meta_arg_of_pericenter": 47.5275,
        "meta_mean_anomaly": 312.6066,
        "meta_ephemeris_type": 0,
        "meta_classification_type": "U",
        "meta_norad_cat_id": 28649,
        "meta_element_set_no": 999,
        "meta_rev_at_epoch": 11548,
        "meta_bstar": 0.00019534507,
        "meta_mean_motion_dot": 1.849e-05,
        "meta_mean_motion_ddot": 0,
        "tle_line1": "1 28649U 05017A   25342.98937395  .00001849  00000+0  19535-3 0  9998",
        "tle_line2": "2 28649  97.5496   9.5689 0001457  47.5275 312.6066 14.90384637115483"
      },
      "geometry": {
        "type": "Point",
        "coordinates": [
          13.294714382715505,
          -24.151780581076025
        ]
      }
    },
    {
      "type": "Feature",
      "properties": {
        "norad_id": 28893,
        "name": "SINAH 1",
        "group": "resource",
        "lat": -64.77695351618792,
        "lon": 129.83083520825593,
        "alt_km": 696.5913441381663,
        "timestamp": "2025-12-09T07:41:32.859324+00:00",
        "meta_object_name": "SINAH 1",
        "meta_object_id": "2005-043D",
        "meta_epoch": "2025-12-08T22:09:09.095616",
        "meta_mean_motion": 14.6395548,
        "meta_eccentricity": 0.00151502,
        "meta_inclination": 98.2601,
        "meta_ra_of_asc_node": 111.4701,
        "meta_arg_of_pericenter": 148.344,
        "meta_mean_anomaly": 211.8677,
        "meta_ephemeris_type": 0,
        "meta_classification_type": "U",
        "meta_norad_cat_id": 28893,
        "meta_element_set_no": 999,
        "meta_rev_at_epoch": 7268,
        "meta_bstar": 0.00016385741,
        "meta_mean_motion_dot": 8.1e-06,
        "meta_mean_motion_ddot": 0,
        "tle_line1": "1 28893U 05043D   25342.92302194  .00000810  00000+0  16386-3 0  9993",
        "tle_line2": "2 28893  98.2601 111.4701 0015150 148.3440 211.8677 14.63955480 72689"
      },
      "geometry": {
        "type": "Point",
        "coordinates": [
          129.83083520825593,
          -64.77695351618792
        ]
      }
    },
    {
      "type": "Feature",
      "properties": {
        "norad_id": 29079,
        "name": "EROS B",
        "group": "resource",
        "lat": 68.69358589973983,
        "lon": -60.94339764610807,
        "alt_km": 362.37326045478585,
        "timestamp": "2025-12-09T07:41:32.859336+00:00",
        "meta_object_name": "EROS B",
        "meta_object_id": "2006-014A",
        "meta_epoch": "2025-12-08T22:01:39.287712",
        "meta_mean_motion": 15.66722139,
        "meta_eccentricity": 0.00016162,
        "meta_inclination": 97.3478,
        "meta_ra_of_asc_node": 99.3139,
        "meta_arg_of_pericenter": 281.4066,
        "meta_mean_anomaly": 78.7013,
        "meta_ephemeris_type": 0,
        "meta_classification_type": "U",
        "meta_norad_cat_id": 29079,
        "meta_element_set_no": 999,
        "meta_rev_at_epoch": 9020,
        "meta_bstar": 0.0015590958,
        "meta_mean_motion_dot": 0.0016663,
        "meta_mean_motion_ddot": 0,
        "tle_line1": "1 29079U 06014A   25342.91781583  .00166630  00000+0  15591-2 0  9990",
        "tle_line2": "2 29079  97.3478  99.3139 0001616 281.4066  78.7013 15.66722139 90201"
      },
      "geometry": {
        "type": "Point",
        "coordinates": [
          -60.94339764610807,
          68.69358589973983
        ]
      }
    },
    {
      "type": "Feature",
      "properties": {
        "norad_id": 29228,
        "name": "RESURS-DK 1",
        "group": "resource",
        "lat": -19.90548269490816,
        "lon": 103.06873397677998,
        "alt_km": 533.1432964950263,
        "timestamp": "2025-12-09T07:41:32.859347+00:00",
        "meta_object_name": "RESURS-DK 1",
        "meta_object_id": "2006-021A",
        "meta_epoch": "2025-12-08T19:05:06.967392",
        "meta_mean_motion": 15.12128967,
        "meta_eccentricity": 0.00076083,
        "meta_inclination": 69.9338,
        "meta_ra_of_asc_node": 112.0315,
        "meta_arg_of_pericenter": 262.3971,
        "meta_mean_anomaly": 97.6331,
        "meta_ephemeris_type": 0,
        "meta_classification_type": "U",
        "meta_norad_cat_id": 29228,
        "meta_element_set_no": 999,
        "meta_rev_at_epoch": 7378,
        "meta_bstar": 0.00029266812,
        "meta_mean_motion_dot": 4.953e-05,
        "meta_mean_motion_ddot": 0,
        "tle_line1": "1 29228U 06021A   25342.79521953  .00004953  00000+0  29267-3 0  9998",
        "tle_line2": "2 29228  69.9338 112.0315 0007608 262.3971  97.6331 15.12128967 73783"
      },
      "geometry": {
        "type": "Point",
        "coordinates": [
          103.06873397677998,
          -19.90548269490816
        ]
      }
    }
  ]
}